NORAD_CAT_ID,OBJECT_NAME,OBJECT_TYPE,EPOCH,MEAN_MOTION,ECCENTRICITY,INCLINATION,RA_OF_ASC_NODE,ARG_OF_PERICENTER,MEAN_ANOMALY,BSTAR,MEAN_MOTION_DOT,MEAN_MOTION_DDOT,TLE_LINE0,TLE_LINE1,TLE_LINE2,SEMIMAJOR_AXIS,PERIOD,APOGEE,PERIGEE,DECAYED
53892.0,STARLINK-5046,PAYLOAD,2024-05-26 20:52:12,15.08847141,0.0001144,53.2161,10.1325,68.2465,291.8649,0.00036159,5.473e-05,0.0,0 STARLINK-5046,1 53892U 22119G   24147.86959337  .00005473  00000-0  36159-3 0  9996,2 53892  53.2161  10.1325 0001144  68.2465 291.8649 15.08847141 92863,6917.859,95.437,540.515,538.932,0.0
53892.0,STARLINK-5046,PAYLOAD,2024-05-26 22:27:35,15.08851575,0.0001143,53.2164,9.8353,88.3976,271.7147,0.00041304,6.294e-05,0.0,0 STARLINK-5046,1 53892U 22119G   24147.93583133  .00006294  00000-0  41304-3 0  9991,2 53892  53.2164   9.8353 0001143  88.3976 271.7147 15.08851575 93295,6917.845,95.437,540.501,538.919,0.0
53892.0,STARLINK-5046,PAYLOAD,2024-05-27 07:59:54,15.08846948,0.0001561,53.216,8.0502,52.2373,307.876,0.00016528,2.344e-05,0.0,0 STARLINK-5046,1 53892U 22119G   24148.33327281  .00002344  00000-0  16528-3 0  9998,2 53892  53.2160   8.0502 0001561  52.2373 307.8760 15.08846948 93350,6917.859,95.437,540.804,538.644,0.0
53892.0,STARLINK-5046,PAYLOAD,2024-05-27 20:42:59,15.08845927,0.0001273,53.2175,5.67,89.9484,270.1654,9.4314e-05,1.214e-05,0.0,0 STARLINK-5046,1 53892U 22119G   24148.86319129  .00001214  00000-0  94314-4 0  9993,2 53892  53.2175   5.6700 0001273  89.9484 270.1654 15.08845927 93012,6917.862,95.437,540.608,538.847,0.0
53892.0,STARLINK-5046,PAYLOAD,2024-05-27 22:18:22,15.08850468,0.0001349,53.2186,5.3675,81.5019,278.6126,0.0001651,2.341e-05,0.0,0 STARLINK-5046,1 53892U 22119G   24148.92942851  .00002341  00000-0  16510-3 0  9997,2 53892  53.2186   5.3675 0001349  81.5019 278.6126 15.08850468 93448,6917.848,95.437,540.647,538.78,0.0
53892.0,STARLINK-5046,PAYLOAD,2024-05-28 07:50:41,15.08853429,0.0001397,53.2186,3.5844,79.4046,280.7103,0.00018009,2.58e-05,0.0,0 STARLINK-5046,1 53892U 22119G   24149.32686556  .00002580  00000-0  18009-3 0  9999,2 53892  53.2186   3.5844 0001397  79.4046 280.7103 15.08853429 93501,6917.839,95.437,540.671,538.738,0.0
53892.0,STARLINK-5046,PAYLOAD,2024-05-28 20:33:46,15.08843793,0.0001398,53.2189,1.2039,110.8278,249.2864,-2.2205e-05,-6.41e-06,0.0,0 STARLINK-5046,1 53892U 22119G   24149.85679107 -.00000641  00000-0 -22205-4 0  9993,2 53892  53.2189   1.2039 0001398 110.8278 249.2864 15.08843793 93162,6917.869,95.437,540.701,538.767,0.0
53892.0,STARLINK-5046,PAYLOAD,2024-05-29 10:52:15,15.08842123,0.0001274,53.2178,358.5328,108.0108,252.1023,7.7402e-05,9.44e-06,0.0,0 STARLINK-5046,1 53892U 22119G   24150.45295140  .00000944  00000-0  77402-4 0  9995,2 53892  53.2178 358.5328 0001274 108.0108 252.1023 15.08842123 93675,6917.874,95.437,540.62,538.858,0.0
53892.0,STARLINK-5046,PAYLOAD,2024-05-29 20:24:33,15.08849891,0.0001168,53.2169,356.7478,88.5834,271.5292,7.0725e-05,8.38e-06,0.0,0 STARLINK-5046,1 53892U 22119G   24150.85038819  .00000838  00000-0  70725-4 0  9990,2 53892  53.2169 356.7478 0001168  88.5834 271.5292 15.08849891 93730,6917.85,95.437,540.523,538.907,0.0
53892.0,STARLINK-5046,PAYLOAD,2024-05-30 13:53:48,15.08844928,0.0001305,53.2173,353.4785,98.7835,261.3305,0.00016698,2.371e-05,0.0,0 STARLINK-5046,1 53892U 22119G   24151.57903011  .00002371  00000-0  16698-3 0  9997,2 53892  53.2173 353.4785 0001305  98.7835 261.3305 15.08844928 93847,6917.865,95.437,540.633,538.828,0.0
53892.0,STARLINK-5046,PAYLOAD,2024-05-30 20:15:20,15.08849145,0.0001329,53.2182,352.2893,106.3904,253.7235,0.00017369,2.478e-05,0.0,0 STARLINK-5046,1 53892U 22119G   24151.84398541  .00002478  00000-0  17369-3 0  9997,2 53892  53.2182 352.2893 0001329 106.3904 253.7235 15.08849145 93464,6917.852,95.437,540.637,538.798,0.0
53892.0,STARLINK-5046,PAYLOAD,2024-05-30 23:26:06,15.08849087,0.000131,53.2174,351.6939,103.2241,256.8898,0.00019517,2.82e-05,0.0,0 STARLINK-5046,1 53892U 22119G   24151.97646639  .00002820  00000-0  19517-3 0  9993,2 53892  53.2174 351.6939 0001310 103.2241 256.8898 15.08849087 93902,6917.853,95.437,540.624,538.811,0.0
53892.0,STARLINK-5046,PAYLOAD,2024-05-31 20:06:07,15.08838591,0.0001494,53.2188,347.8295,112.2153,247.8997,3.4787e-05,2.66e-06,0.0,0 STARLINK-5046,1 53892U 22119G   24152.83759256  .00000266  00000-0  34787-4 0  9998,2 53892  53.2188 347.8295 0001494 112.2153 247.8997 15.08838591 93610,6917.885,95.438,540.783,538.716,0.0
53892.0,STARLINK-5046,PAYLOAD,2024-06-01 13:35:23,15.08832,0.0001298,53.2186,344.5599,95.2552,264.8588,-2.0252e-05,-6.1e-06,0.0,0 STARLINK-5046,1 53892U 22119G   24153.56624010 -.00000610  00000-0 -20252-4 0  9995,2 53892  53.2186 344.5599 0001298  95.2552 264.8588 15.08832000 93720,6917.905,95.438,540.668,538.872,0.0
53892.0,STARLINK-5046,PAYLOAD,2024-06-02 05:29:14,15.08839831,0.0001315,53.2186,341.5876,96.4306,263.6836,-1.9393e-05,-5.97e-06,0.0,0 STARLINK-5046,1 53892U 22119G   24154.22863686 -.00000597  00000-0 -19393-4 0  9991,2 53892  53.2186 341.5876 0001315  96.4306 263.6836 15.08839831 93828,6917.881,95.438,540.656,538.836,0.0
53892.0,STARLINK-5046,PAYLOAD,2024-06-03 18:03:06,15.08825251,9.84e-05,53.2168,334.7449,88.0151,272.0954,0.00041237,6.279e-05,0.0,0 STARLINK-5046,1 53892U 22119G   24155.75216146  .00006279  00000-0  41237-3 0  9995,2 53892  53.2168 334.7449 0000984  88.0151 272.0954 15.08825251 94056,6917.925,95.438,540.471,539.11,0.0
53892.0,STARLINK-5046,PAYLOAD,2024-06-04 11:32:20,15.08841145,0.0001249,53.2177,331.4758,87.6803,272.4332,4.0322e-05,3.54e-06,0.0,0 STARLINK-5046,1 53892U 22119G   24156.48079582  .00000354  00000-0  40322-4 0  9990,2 53892  53.2177 331.4758 0001249  87.6803 272.4332 15.08841145 94163,6917.877,95.437,540.606,538.878,0.0
53892.0,STARLINK-5046,PAYLOAD,2024-06-05 05:01:35,15.08843264,0.0001314,53.2177,328.2032,88.9683,271.1459,6.2327e-05,7.04e-06,0.0,0 STARLINK-5046,1 53892U 22119G   24157.20943456  .00000704  00000-0  62327-4 0  9999,2 53892  53.2177 328.2032 0001314  88.9683 271.1459 15.08843264 94693,6917.87,95.437,540.644,538.826,0.0
53892.0,STARLINK-5046,PAYLOAD,2024-06-05 17:44:40,15.08835375,0.0001191,53.2177,325.8246,85.0558,275.057,6.7069e-06,-1.81e-06,0.0,0 STARLINK-5046,1 53892U 22119G   24157.73936221 -.00000181  00000-0  67069-5 0  9998,2 53892  53.2177 325.8246 0001191  85.0558 275.0570 15.08835375 94359,6917.895,95.438,540.583,538.936,0.0
53892.0,STARLINK-5046,PAYLOAD,2024-06-06 17:35:27,15.08844739,0.0001493,53.2178,321.3647,81.0934,279.0227,8.2183e-05,1.02e-05,0.0,0 STARLINK-5046,1 53892U 22119G   24158.73295358  .00001020  00000-0  82183-4 0  9993,2 53892  53.2178 321.3647 0001493  81.0934 279.0227 15.08844739 94509,6917.866,95.437,540.764,538.698,0.0
53892.0,STARLINK-5046,PAYLOAD,2024-06-07 09:29:19,15.08839181,0.0001585,53.2174,318.3912,299.1644,60.9189,4.0241e-05,3.53e-06,0.0,0 STARLINK-5046,1 53892U 22119G   24159.39535933  .00000353  00000-0  40241-4 0  9999,2 53892  53.2174 318.3912 0001585 299.1644  60.9189 15.08839181 94608,6917.883,95.438,540.844,538.651,0.0
53892.0,STARLINK-5046,PAYLOAD,2024-06-07 17:26:14,15.08840093,0.0001618,53.2073,316.8985,91.3741,268.7436,3.2731e-05,2.33e-06,0.0,0 STARLINK-5046,1 53892U 22119G   24159.72656013  .00000233  00000-0  32731-4 0  9991,2 53892  53.2073 316.8985 0001618  91.3741 268.7436 15.08840093 95075,6917.88,95.438,540.864,538.626,0.0
53892.0,STARLINK-5046,PAYLOAD,2024-06-08 09:20:06,15.08852597,0.00012,53.2156,313.9296,85.4443,274.6686,-9.7147e-05,-1.834e-05,0.0,0 STARLINK-5046,1 53892U 22119G   24160.38896039 -.00001834  00000-0 -97147-4 0  9991,2 53892  53.2156 313.9296 0001200  85.4443 274.6686 15.08852597 95176,6917.842,95.437,540.537,538.877,0.0
53892.0,STARLINK-5046,PAYLOAD,2024-06-08 17:17:00,15.08850717,0.00014,53.2181,312.4433,81.4316,278.6835,0.00019311,2.788e-05,0.0,0 STARLINK-5046,1 53892U 22119G   24160.72014959  .00002788  00000-0  19311-3 0  9995,2 53892  53.2181 312.4433 0001400  81.4316 278.6835 15.08850717 94809,6917.848,95.437,540.681,538.744,0.0
53892.0,STARLINK-5046,PAYLOAD,2024-06-09 10:46:18,15.08817012,0.0001227,53.2157,309.1718,77.5275,282.5855,-0.00010151,-1.902e-05,0.0,0 STARLINK-5046,1 53892U 22119G   24161.44882005 -.00001902  00000-0 -10151-3 0  9992,2 53892  53.2157 309.1718 0001227  77.5275 282.5855 15.08817012 94917,6917.951,95.439,540.664,538.967,0.0
53892.0,STARLINK-5046,PAYLOAD,2024-06-09 20:18:33,15.08861436,0.0001017,53.215,307.3862,107.9264,252.1839,0.00027289,4.06e-05,0.0,0 STARLINK-5046,1 53892U 22119G   24161.84622569  .00004060  00000-0  27289-3 0  9999,2 53892  53.2150 307.3862 0001017 107.9264 252.1839 15.08861436 94973,6917.815,95.436,540.383,538.976,0.0
53892.0,STARLINK-5046,PAYLOAD,2024-06-10 02:40:08,15.08831972,0.000209,53.2186,306.1979,78.2107,281.9119,3.5198e-05,2.72e-06,0.0,0 STARLINK-5046,1 53892U 22119G   24162.11121472  .00000272  00000-0  35198-4 0  9997,2 53892  53.2186 306.1979 0002090  78.2107 281.9119 15.08831972 95015,6917.905,95.438,541.216,538.324,0.0
53892.0,STARLINK-5046,PAYLOAD,2024-06-10 09:01:40,15.08842823,0.000171,53.217,305.0088,83.8382,276.2805,-8.8356e-06,-4.29e-06,0.0,0 STARLINK-5046,1 53892U 22119G   24162.37616797 -.00000429  00000-0 -88356-5 0  9995,2 53892  53.2170 305.0088 0001710  83.8382 276.2805 15.08842823 95052,6917.872,95.437,540.92,538.554,0.0
53892.0,STARLINK-5046,PAYLOAD,2024-06-10 13:47:49,15.08847039,0.0001733,53.2173,304.1176,83.5538,276.5651,3.9815e-05,3.46e-06,0.0,0 STARLINK-5046,1 53892U 22119G   24162.57488361  .00000346  00000-0  39815-4 0  9992,2 53892  53.2173 304.1176 0001733  83.5538 276.5651 15.08847039 95504,6917.859,95.437,540.923,538.525,0.0
53892.0,STARLINK-5046,PAYLOAD,2024-06-10 16:58:35,15.08856444,8.41e-05,53.2178,303.5208,42.0903,318.0154,6.9334e-05,8.16e-06,0.0,0 STARLINK-5046,1 53892U 22119G   24162.70735535  .00000816  00000-0  69334-4 0  9996,2 53892  53.2178 303.5208 0000841  42.0903 318.0154 15.08856444 95109,6917.83,95.437,540.277,539.113,0.0
